QIANFAN-25              
1 61558U 24185G   25286.57981167  .00000663  00000+0  39740-3 0  9992
2 61558  88.9756  84.9932 0010223 127.2361 232.9755 14.05821514 61051
QIANFAN-26              
1 61559U 24185H   25286.68813361  .00000361  00000+0  34821-3 0  9995
2 61559  88.9754  86.2284 0005658 173.9524 186.1711 13.77761035 60409
QIANFAN-27              
1 61560U 24185J   25286.59555620  .00000801  00000+0  32188-3 0  9991
2 61560  88.9753  83.9909 0009868 119.9204 240.2971 14.27215526 61585
QIANFAN-28              
1 61561U 24185K   25286.67578093  .00001201  00000+0  47990-3 0  9992
2 61561  88.9769  83.9800 0008979 119.1928 241.0166 14.27842307 61601
QIANFAN-29              
1 61562U 24185L   25286.59944124  .00000241  00000+0  35507-3 0  9990
2 61562  88.9731  87.5218 0008988 217.2154 142.8375 13.50979888 59679
QIANFAN-30              
1 61563U 24185M   25286.67702834  .00000231  00000+0  34515-3 0  9997
2 61563  88.9750  87.0160 0006925 196.6311 163.4614 13.49957386 59960
QIANFAN-31              
1 61564U 24185N   25286.62951611  .00000271  00000+0  35926-3 0  9993
2 61564  88.9736  86.9180 0006647 192.2096 167.8899 13.57930480 60003
QIANFAN-32              
1 61565U 24185P   25286.60463130  .00000225  00000+0  33139-3 0  9999
2 61565  88.9793  87.1395 0007984 229.0481 130.9980 13.50708852 59920
